[{"OBJECT_NAME":"ROCK","OBJECT_ID":"2024-149G","EPOCH":"2026-04-27T04:54:11.833632","MEAN_MOTION":15.38215975,"ECCENTRICITY":0.000305,"INCLINATION":97.3774,"RA_OF_ASC_NODE":200.251,"ARG_OF_PERICENTER":89.2436,"MEAN_ANOMALY":270.9159,"EPHEMERIS_TYPE":0,"CLASSIFICATION_TYPE":"U","NORAD_CAT_ID":60474,"ELEMENT_SET_NO":999,"REV_AT_EPOCH":9442,"BSTAR":0.00049623,"MEAN_MOTION_DOT":0.00018622,"MEAN_MOTION_DDOT":0},{"OBJECT_NAME":"CONNECTA IOT-3","OBJECT_ID":"2024-149H","EPOCH":"2026-04-27T05:01:57.980640","MEAN_MOTION":15.23146683,"ECCENTRICITY":0.0004666,"INCLINATION":97.3744,"RA_OF_ASC_NODE":194.1435,"ARG_OF_PERICENTER":89.7263,"MEAN_ANOMALY":270.4509,"EPHEMERIS_TYPE":0,"CLASSIFICATION_TYPE":"U","NORAD_CAT_ID":60475,"ELEMENT_SET_NO":999,"REV_AT_EPOCH":9404,"BSTAR":0.00022958,"MEAN_MOTION_DOT":5.353e-5,"MEAN_MOTION_DDOT":0},{"OBJECT_NAME":"QUBE","OBJECT_ID":"2024-149J","EPOCH":"2026-04-27T04:04:17.752224","MEAN_MOTION":15.44831853,"ECCENTRICITY":0.000289,"INCLINATION":97.3775,"RA_OF_ASC_NODE":202.7155,"ARG_OF_PERICENTER":82.5708,"MEAN_ANOMALY":277.5869,"EPHEMERIS_TYPE":0,"CLASSIFICATION_TYPE":"U","NORAD_CAT_ID":60476,"ELEMENT_SET_NO":999,"REV_AT_EPOCH":9458,"BSTAR":0.00067692,"MEAN_MOTION_DOT":0.00031733,"MEAN_MOTION_DDOT":0},{"OBJECT_NAME":"WREN-1","OBJECT_ID":"2024-149L","EPOCH":"2026-04-27T05:02:02.065632","MEAN_MOTION":15.39564196,"ECCENTRICITY":0.0005637,"INCLINATION":97.3766,"RA_OF_ASC_NODE":200.8669,"ARG_OF_PERICENTER":93.4416,"MEAN_ANOMALY":266.7474,"EPHEMERIS_TYPE":0,"CLASSIFICATION_TYPE":"U","NORAD_CAT_ID":60478,"ELEMENT_SET_NO":999,"REV_AT_EPOCH":9447,"BSTAR":0.00067608,"MEAN_MOTION_DOT":0.0002658,"MEAN_MOTION_DDOT":0},{"OBJECT_NAME":"TOMORROW-S1","OBJECT_ID":"2024-149M","EPOCH":"2026-04-27T04:49:42.378816","MEAN_MOTION":15.31997042,"ECCENTRICITY":0.0004187,"INCLINATION":97.3754,"RA_OF_ASC_NODE":197.8624,"ARG_OF_PERICENTER":82.4464,"MEAN_ANOMALY":277.7253,"EPHEMERIS_TYPE":0,"CLASSIFICATION_TYPE":"U","NORAD_CAT_ID":60479,"ELEMENT_SET_NO":999,"REV_AT_EPOCH":9428,"BSTAR":0.00030393,"MEAN_MOTION_DOT":9.316e-5,"MEAN_MOTION_DDOT":0},{"OBJECT_NAME":"FLOCK 4BE-18","OBJECT_ID":"2024-149N","EPOCH":"2026-04-26T18:46:22.215648","MEAN_MOTION":15.4018489,"ECCENTRICITY":0.00050228,"INCLINATION":97.3729,"RA_OF_ASC_NODE":200.041,"ARG_OF_PERICENTER":92.322,"MEAN_ANOMALY":267.8601,"EPHEMERIS_TYPE":0,"CLASSIFICATION_TYPE":"U","NORAD_CAT_ID":60480,"ELEMENT_SET_NO":999,"REV_AT_EPOCH":9439,"BSTAR":0.00058053977,"MEAN_MOTION_DOT":0.0002327,"MEAN_MOTION_DDOT":0},{"OBJECT_NAME":"FLOCK 4BE-7","OBJECT_ID":"2024-149P","EPOCH":"2026-04-27T04:27:42.768288","MEAN_MOTION":15.38208812,"ECCENTRICITY":0.0004192,"INCLINATION":97.3764,"RA_OF_ASC_NODE":199.9044,"ARG_OF_PERICENTER":96.6265,"MEAN_ANOMALY":263.5457,"EPHEMERIS_TYPE":0,"CLASSIFICATION_TYPE":"U","NORAD_CAT_ID":60481,"ELEMENT_SET_NO":999,"REV_AT_EPOCH":9440,"BSTAR":0.00074497,"MEAN_MOTION_DOT":0.00028029,"MEAN_MOTION_DDOT":0},{"OBJECT_NAME":"FLOCK 4BE-26","OBJECT_ID":"2024-149S","EPOCH":"2026-04-27T04:20:55.605696","MEAN_MOTION":15.55522524,"ECCENTRICITY":0.0002711,"INCLINATION":97.3685,"RA_OF_ASC_NODE":201.1251,"ARG_OF_PERICENTER":143.1035,"MEAN_ANOMALY":217.0406,"EPHEMERIS_TYPE":0,"CLASSIFICATION_TYPE":"U","NORAD_CAT_ID":60484,"ELEMENT_SET_NO":999,"REV_AT_EPOCH":9450,"BSTAR":0.0025398,"MEAN_MOTION_DOT":0.00177078,"MEAN_MOTION_DDOT":0},{"OBJECT_NAME":"TOMORROW-S2","OBJECT_ID":"2024-149T","EPOCH":"2026-04-27T04:00:25.521984","MEAN_MOTION":15.32003829,"ECCENTRICITY":0.0004569,"INCLINATION":97.382,"RA_OF_ASC_NODE":198.2696,"ARG_OF_PERICENTER":97.3862,"MEAN_ANOMALY":262.7899,"EPHEMERIS_TYPE":0,"CLASSIFICATION_TYPE":"U","NORAD_CAT_ID":60485,"ELEMENT_SET_NO":999,"REV_AT_EPOCH":9427,"BSTAR":0.00033425,"MEAN_MOTION_DOT":0.00010257,"MEAN_MOTION_DDOT":0},{"OBJECT_NAME":"FLOCK 4BE-36","OBJECT_ID":"2024-149U","EPOCH":"2026-04-26T18:47:52.593504","MEAN_MOTION":15.41088388,"ECCENTRICITY":0.00051345,"INCLINATION":97.3743,"RA_OF_ASC_NODE":200.6617,"ARG_OF_PERICENTER":100.34,"MEAN_ANOMALY":259.8425,"EPHEMERIS_TYPE":0,"CLASSIFICATION_TYPE":"U","NORAD_CAT_ID":60486,"ELEMENT_SET_NO":999,"REV_AT_EPOCH":9443,"BSTAR":0.0005256206,"MEAN_MOTION_DOT":0.00021694,"MEAN_MOTION_DDOT":0},{"OBJECT_NAME":"FLOCK 4BE-25","OBJECT_ID":"2024-149V","EPOCH":"2026-04-27T05:08:46.670784","MEAN_MOTION":15.37497713,"ECCENTRICITY":0.0003691,"INCLINATION":97.38,"RA_OF_ASC_NODE":200.0723,"ARG_OF_PERICENTER":96.6365,"MEAN_ANOMALY":263.53,"EPHEMERIS_TYPE":0,"CLASSIFICATION_TYPE":"U","NORAD_CAT_ID":60487,"ELEMENT_SET_NO":999,"REV_AT_EPOCH":9440,"BSTAR":0.00049195,"MEAN_MOTION_DOT":0.00018036,"MEAN_MOTION_DDOT":0},{"OBJECT_NAME":"FLOCK 4BE-31","OBJECT_ID":"2024-149W","EPOCH":"2026-04-26T18:55:53.965920","MEAN_MOTION":15.42123519,"ECCENTRICITY":0.00040491,"INCLINATION":97.38,"RA_OF_ASC_NODE":201.3927,"ARG_OF_PERICENTER":104.0292,"MEAN_ANOMALY":256.1406,"EPHEMERIS_TYPE":0,"CLASSIFICATION_TYPE":"U","NORAD_CAT_ID":60488,"ELEMENT_SET_NO":999,"REV_AT_EPOCH":9445,"BSTAR":0.00059308034,"MEAN_MOTION_DOT":0.00025354,"MEAN_MOTION_DDOT":0},{"OBJECT_NAME":"FLOCK 4BE-20","OBJECT_ID":"2024-149X","EPOCH":"2026-04-26T16:42:31.218624","MEAN_MOTION":15.36692667,"ECCENTRICITY":0.00052554,"INCLINATION":97.3702,"RA_OF_ASC_NODE":198.5615,"ARG_OF_PERICENTER":98.8363,"MEAN_ANOMALY":261.3476,"EPHEMERIS_TYPE":0,"CLASSIFICATION_TYPE":"U","NORAD_CAT_ID":60489,"ELEMENT_SET_NO":999,"REV_AT_EPOCH":9430,"BSTAR":0.00050456254,"MEAN_MOTION_DOT":0.0001803,"MEAN_MOTION_DDOT":0},{"OBJECT_NAME":"FLOCK 4BE-23","OBJECT_ID":"2024-149Y","EPOCH":"2026-04-27T04:41:06.672768","MEAN_MOTION":15.36339639,"ECCENTRICITY":0.0005099,"INCLINATION":97.3781,"RA_OF_ASC_NODE":199.4093,"ARG_OF_PERICENTER":103.7132,"MEAN_ANOMALY":256.468,"EPHEMERIS_TYPE":0,"CLASSIFICATION_TYPE":"U","NORAD_CAT_ID":60490,"ELEMENT_SET_NO":999,"REV_AT_EPOCH":9436,"BSTAR":0.00044289,"MEAN_MOTION_DOT":0.00015632,"MEAN_MOTION_DDOT":0},{"OBJECT_NAME":"FLOCK 4BE-15","OBJECT_ID":"2024-149Z","EPOCH":"2026-04-26T17:06:11.911104","MEAN_MOTION":15.48882224,"ECCENTRICITY":0.00055123,"INCLINATION":97.3713,"RA_OF_ASC_NODE":200.594,"ARG_OF_PERICENTER":172.3391,"MEAN_ANOMALY":187.7945,"EPHEMERIS_TYPE":0,"CLASSIFICATION_TYPE":"U","NORAD_CAT_ID":60491,"ELEMENT_SET_NO":999,"REV_AT_EPOCH":9443,"BSTAR":0.0022945195,"MEAN_MOTION_DOT":0.00125415,"MEAN_MOTION_DDOT":0},{"OBJECT_NAME":"FLOCK 4BE-17","OBJECT_ID":"2024-149AA","EPOCH":"2026-04-27T04:20:35.051136","MEAN_MOTION":15.38282318,"ECCENTRICITY":0.0004433,"INCLINATION":97.3778,"RA_OF_ASC_NODE":200.2073,"ARG_OF_PERICENTER":96.1448,"MEAN_ANOMALY":264.0302,"EPHEMERIS_TYPE":0,"CLASSIFICATION_TYPE":"U","NORAD_CAT_ID":60492,"ELEMENT_SET_NO":999,"REV_AT_EPOCH":9441,"BSTAR":0.0005566,"MEAN_MOTION_DOT":0.00020952,"MEAN_MOTION_DDOT":0},{"OBJECT_NAME":"NUSAT-50 (NANCY ROMAN)","OBJECT_ID":"2024-149AB","EPOCH":"2026-04-27T04:48:37.287648","MEAN_MOTION":15.28961669,"ECCENTRICITY":0.0003914,"INCLINATION":97.3791,"RA_OF_ASC_NODE":198.8463,"ARG_OF_PERICENTER":43.4118,"MEAN_ANOMALY":316.7429,"EPHEMERIS_TYPE":0,"CLASSIFICATION_TYPE":"U","NORAD_CAT_ID":60493,"ELEMENT_SET_NO":999,"REV_AT_EPOCH":9433,"BSTAR":0.00041494,"MEAN_MOTION_DOT":0.00011605,"MEAN_MOTION_DDOT":0}]
